{
    "links": {
        "self": "http://www.neowsapp.com/rest/v1/neo/3795052?api_key=iIulBulltgU6a56xZRHN4H3l9WmuAYTsLGpBGhQ2"
    },
    "id": "3795052",
    "neo_reference_id": "3795052",
    "name": "(2017 YU4)",
    "designation": "2017 YU4",
    "nasa_jpl_url": "http://ssd.jpl.nasa.gov/sbdb.cgi?sstr=3795052",
    "absolute_magnitude_h": 25.8,
    "estimated_diameter": {
        "kilometers": {
            "estimated_diameter_min": 0.0183888672,
            "estimated_diameter_max": 0.0411187571
        },
        "meters": {
            "estimated_diameter_min": 18.388867207,
            "estimated_diameter_max": 41.1187571041
        },
        "miles": {
            "estimated_diameter_min": 0.0114263088,
            "estimated_diameter_max": 0.0255500032
        },
        "feet": {
            "estimated_diameter_min": 60.3309310875,
            "estimated_diameter_max": 134.9040630575
        }
    },
    "is_potentially_hazardous_asteroid": false,
    "close_approach_data": [
        {
            "close_approach_date": "2017-12-17",
            "close_approach_date_full": "2017-Dec-17 00:45",
            "epoch_date_close_approach": 1513471500000,
            "relative_velocity": {
                "kilometers_per_second": "7.1325359991",
                "kilometers_per_hour": "25677.12959681",
                "miles_per_hour": "15954.7697764179"
            },
            "miss_distance": {
                "astronomical": "0.0525767075",
                "lunar": "20.4523392175",
                "kilometers": "7865363.453613025",
                "miles": "4887310.222488745"
            },
            "orbiting_body": "Earth"
        }
    ],
    "orbital_data": {
        "orbit_id": "1",
        "orbit_determination_date": "2017-12-26 11:42:09",
        "first_observation_date": "2017-12-24",
        "last_observation_date": "2017-12-26",
        "data_arc_in_days": 2,
        "observations_used": 19,
        "orbit_uncertainty": "9",
        "minimum_orbit_intersection": ".0367838",
        "jupiter_tisserand_invariant": "4.671",
        "epoch_osculation": "2458112.5",
        "eccentricity": ".2892478601274521",
        "semi_major_axis": "1.408536285619299",
        "inclination": "11.34924184199742",
        "ascending_node_longitude": "273.3565410493034",
        "orbital_period": "610.5911229025859",
        "perihelion_distance": "1.001120179092047",
        "perihelion_argument": "153.8716013008232",
        "aphelion_distance": "1.815952392146551",
        "perihelion_time": "2458086.663709154844",
        "mean_anomaly": "15.23288556840034",
        "mean_motion": ".5895925874071947",
        "equinox": "J2000",
        "orbit_class": {
            "orbit_class_type": "APO",
            "orbit_class_description": "Near-Earth asteroid orbits which cross the Earth’s orbit similar to that of 1862 Apollo",
            "orbit_class_range": "a (semi-major axis) > 1.0 AU; q (perihelion) < 1.017 AU"
        }
    },
    "is_sentry_object": false
}